[{"OBJECT_NAME":"OBJECT D","OBJECT_ID":"2024-174D","EPOCH":"2026-03-10T00:15:10.483200","MEAN_MOTION":15.28039787,"ECCENTRICITY":0.00110644,"INCLINATION":97.4441,"RA_OF_ASC_NODE":80.4677,"ARG_OF_PERICENTER":212.9968,"MEAN_ANOMALY":147.0582,"EPHEMERIS_TYPE":0,"CLASSIFICATION_TYPE":"U","NORAD_CAT_ID":61241,"ELEMENT_SET_NO":999,"REV_AT_EPOCH":8076,"BSTAR":0.00036340099,"MEAN_MOTION_DOT":9.884e-5,"MEAN_MOTION_DDOT":0},{"OBJECT_NAME":"STARLINK-35302","OBJECT_ID":"2025-221Y","EPOCH":"2026-03-09T10:14:38.381568","MEAN_MOTION":15.30198771,"ECCENTRICITY":0.00012062,"INCLINATION":53.1586,"RA_OF_ASC_NODE":89.5268,"ARG_OF_PERICENTER":88.1967,"MEAN_ANOMALY":271.9171,"EPHEMERIS_TYPE":0,"CLASSIFICATION_TYPE":"U","NORAD_CAT_ID":65845,"ELEMENT_SET_NO":999,"REV_AT_EPOCH":2469,"BSTAR":0.00075092144,"MEAN_MOTION_DOT":0.00021946,"MEAN_MOTION_DDOT":0}]
